# Made by eph2tle, compiled Feb 24 2022 17:07:51
# Run at Sun Feb 27 19:06:32 2022
#
# No updates   (with any luck,  it'll run into Didymoon next year)
#
#    The following TLEs (Two-Line Elements) were generated by fitting
# a numerically-integrated ephemeris,  based on the orbit given below,
# to the SDP4/SGP4 models.  Each TLE is good for the interval between
# its epoch and the epoch of the subsequent TLE (usually one day).
# The maximum deviation between the numerically integrated ephemerides
# and the TLE-based ephemeris, in kilometers,  is given for each TLE
# as the "worst residual".
#
#    This fitting is done using the 'eph2tle' code packaged with Find_Orb.
# The code has details on how the TLEs were computed :
#
#    https://github.com/Bill-Gray/find_orb/eph2tle.cpp
#
#    Be warned:  the error given is that between the numerically
# integrated ephems and the TLE model.  There will usually be at
# least some additional difference between the ephems and the actual
# motion of the satellite,  especially if the ephemerides are based
# on a short arc.  If the following orbital elements say something
# like "[based on] 10 observations 2015 Jan. 1-13",  and the TLEs
# are for 2015 May,  the extrapolation may be tenuous at best.  If
# your application requires a specific level of accuracy,  you may
# want to contact me;  I can give you some idea as to the fit of the
# underlying data (and possibly TLEs based on newer data).
#
#   You can usually find the underlying observational data,  and the
# fitted orbit,  residuals,  ephemerides,  and sometimes some comments
# about the object,  among the pages listed at
#
#    https://www.projectpluto.com/pluto/mpecs/pseudo.htm
#
#    WARNING:  for this object,  "normal" TLEs cannot be fitted.  (This
# usually means an object with an hyperbolic or nearly-parabolic orbit.)
# For this and similar cases,   an alternative model is used,  in which
# most of the traditional TLE data is replaced by six signed 8-digit hex
# numbers.  These six numbers are a state vector,  numerically integrated
# using a simplified force model.  This is necessary for objects at L2 or
# L1,  and sometimes for objects in high orbits where the SDP4/SGP4 model
# fails.  Some documentation is in 'get_el.cpp' in the source code at
# https://www.github.com/Bill-Gray/sat_code ; look for 'hex' in that file,
# with the actual integration done in 'sdp4.cpp'.  But be aware:  it's my
# own extension,  doesn't work with other code,  and is therefore used
# only when necessary.
#
#    Also,  if you use a TLE outside the "correct" time range (between
# its MJD and that of the next TLE),  all bets are off.  I've carefully
# computed and minimized the worst error over the "correct" time frame,
# but the ephemeris may (or may not) diverge wildly outside of it.
#
# Ephem range: 59543.000000 59611.000000 1.000000
# Created Sun Feb 27 19:06:23 2022
# Ephemeris start: 25 Nov 2021  0:00:00
# Ephemeris end:    1 Feb 2022  0:00:00
# Times are all TDT
# Positions/velocities are in equatorial J2000
# Orbital elements:  DART = NORAD 49497 = 2021-110A
#    Perihelion 2022 Feb 5.01843 +/- 0.000337 TT =  0:26:32 (JD 2459615.51843)
# Epoch 2021 Dec  3.0 TT = JDT 2459551.5   Earth MOID: 0.0002   Find_Orb
# M 297.26753098 +/- 0.0010           (J2000 ecliptic)
# n   0.97991267 +/- 1.14e-5          Peri.   79.14144 +/- 0.0018
# a   1.00387074 +/- 7.8e-6           Node    61.41470 +/- 0.00057
# e   0.0663457 +/- 3.15e-5           Incl.    3.89875 +/- 0.0022
# P   1.01/367.37d           H 23.5   G  0.15   U  5.1
# q 0.93726823 +/- 2.43e-5    Q 1.07047325 +/- 3.99e-5
# From 16 observations 2021 Nov. 24-Dec. 3; mean residual 0".243
#
# 1 NoradU COSPAR   Epoch.epoch     dn/dt/2  d2n/dt2/6 BSTAR    T El# C
# 2 NoradU Inclina RAAscNode Eccent  ArgPeri MeanAno  MeanMotion Rev# C

# Worst residual: 4.65 km
# MJD 59543.000000 (2021 Nov 25  0:00)
DART = NORAD 49497 = 2021-110A
1 49497U 21110A   21328.99919926 -001BL5OX -003B0JX8 +001LO79EH 15203
2 49497                          -0005878X -000FG4ON +00095D75     05

# Worst residual: 8.12 km
# MJD 59544.000000 (2021 Nov 26  0:00)
DART = NORAD 49497 = 2021-110A
1 49497U 21110A   21329.99919926 -002HOGZP -006SMMTD +003ONYBEH 15201
2 49497                          -0004NQS2 -000DZHCO +0008DM82     01

# Worst residual: 1.73 km
# MJD 59545.000000 (2021 Nov 27  0:00)
DART = NORAD 49497 = 2021-110A
1 49497U 21110A   21330.99919926 -003L2NYH -00A374UY +005NOSE1H 15207
2 49497                          -0004HE3O -000DIW6A +00083EWE     01

# Worst residual: 0.53 km
# MJD 59546.000000 (2021 Nov 28  0:00)
DART = NORAD 49497 = 2021-110A
1 49497U 21110A   21331.99919926 -004NDS6A -00DAZKPO +007KVJB9H 15209
2 49497                          -0004E51V -000DAU98 +0007XK95     05

# Worst residual: 0.21 km
# MJD 59547.000000 (2021 Nov 29  0:00)
DART = NORAD 49497 = 2021-110A
1 49497U 21110A   21332.99919926 -005P2PP5 -00GHB5WE +009GW3W5H 15208
2 49497                          -0004C3NX -000D686E +0007TF8F     09

# Worst residual: 0.14 km
# MJD 59548.000000 (2021 Nov 30  0:00)
DART = NORAD 49497 = 2021-110A
1 49497U 21110A   21333.99919926 -006QCYI4 -00JMR5XI +00BC0TOJH 15200
2 49497                          -0004AOLL -000D3CRU +0007Q3HA     04

# Worst residual: 0.36 km
# MJD 59549.000000 (2021 Dec  1  0:00)
DART = NORAD 49497 = 2021-110A
1 49497U 21110A   21334.99919926 -007RCPYU -00MRN1N4 +00D6ET54H 15203
2 49497                          -00049NGV -000D1HIK +0007N6VI     04

# Worst residual: 0.62 km
# MJD 59550.000000 (2021 Dec  2  0:00)
DART = NORAD 49497 = 2021-110A
1 49497U 21110A   21335.99919926 -008S4VA5 -00PW5PYS +00F04QTMH 15203
2 49497                          -00048WT9 -000D095U +0007KI6M     05

# Worst residual: 0.70 km
# MJD 59551.000000 (2021 Dec  3  0:00)
DART = NORAD 49497 = 2021-110A
1 49497U 21110A   21336.99919926 -009SRQGY -00T0FRIW +00GT7ZA1H 15205
2 49497                          -00048FD9 -000CZGRB +0007HX4X     09

# Worst residual: 0.61 km
# MJD 59552.000000 (2021 Dec  4  0:00)
DART = NORAD 49497 = 2021-110A
1 49497U 21110A   21337.99919926 -00ATBH9V -00W4KJ99 +00ILP0PQH 15200
2 49497                          -000486S8 -000CZ0UF +0007FCSY     00

# Worst residual: 0.48 km
# MJD 59553.000000 (2021 Dec  5  0:00)
DART = NORAD 49497 = 2021-110A
1 49497U 21110A   21338.99919926 -00BTU7F4 -00Z8MU3U +00KDJQZXH 15202
2 49497                          -000486UC -000CYW2W +0007CQVE     04

# Worst residual: 0.52 km
# MJD 59554.000000 (2021 Dec  6  0:00)
DART = NORAD 49497 = 2021-110A
1 49497U 21110A   21339.99919926 -00CUDXGR -012CPBAV +00M4RJK1H 15209
2 49497                          -00048EYW -000CZ2CQ +0007A1CZ     09

# Worst residual: 0.82 km
# MJD 59555.000000 (2021 Dec  7  0:00)
DART = NORAD 49497 = 2021-110A
1 49497U 21110A   21340.99919926 -00DV0GMB -015GUNXM +00NVBBY2H 15201
2 49497                          -00048U0Y -000CZK3V +000776KU     02

# Worst residual: 1.27 km
# MJD 59556.000000 (2021 Dec  8  0:00)
DART = NORAD 49497 = 2021-110A
1 49497U 21110A   21341.99919926 -00EVR9Y7 -018L5PG0 +00PL5OG1H 15200
2 49497                          -00049ED6 -000D0DUB +0007455H     07

# Worst residual: 1.68 km
# MJD 59557.000000 (2021 Dec  9  0:00)
DART = NORAD 49497 = 2021-110A
1 49497U 21110A   21342.99919926 -00FWNESM -01BPPCR3 +00RA8UYLH 15207
2 49497                          -0004A21B -000D1JU0 +00070W1Y     03

# Worst residual: 1.93 km
# MJD 59558.000000 (2021 Dec 10  0:00)
DART = NORAD 49497 = 2021-110A
1 49497U 21110A   21343.99919926 -00GXPF5T -01EUKJT3 +00SYIXZUH 15205
2 49497                          -0004AR0G -000D321H +0006XELB     03

# Worst residual: 1.97 km
# MJD 59559.000000 (2021 Dec 11  0:00)
DART = NORAD 49497 = 2021-110A
1 49497U 21110A   21344.99919926 -00HYXDWQ -01HZU6YP +00ULXVAUH 15204
2 49497                          -0004BFDD -000D4W5B +0006TOCJ     06

# Worst residual: 1.86 km
# MJD 59560.000000 (2021 Dec 12  0:00)
DART = NORAD 49497 = 2021-110A
1 49497U 21110A   21345.99919926 -00J0AY1Q -01L5L2W0 +00W8FHZKH 15205
2 49497                          -0004C1DH -000D71MR +0006PP47     07

# Worst residual: 1.71 km
# MJD 59561.000000 (2021 Dec 13  0:00)
DART = NORAD 49497 = 2021-110A
1 49497U 21110A   21346.99919926 -00K1TCGA -01OBVV6O +00XTXO2QH 15209
2 49497                          -0004CJHJ -000D9HUP +0006LGUC     06

# Worst residual: 1.60 km
# MJD 59562.000000 (2021 Dec 14  0:00)
DART = NORAD 49497 = 2021-110A
1 49497U 21110A   21347.99919926 -00L3FHK3 -01RIT1KM +00ZEE7L1H 15206
2 49497                          -0004CWCZ -000DC83J +0006GZKP     08

# Worst residual: 1.55 km
# MJD 59563.000000 (2021 Dec 15  0:00)
DART = NORAD 49497 = 2021-110A
1 49497U 21110A   21348.99919926 -00M53YTT -01UQEXF3 +010XQZB3H 15207
2 49497                          -0004D2SR -000DF7LZ +0006C9FV     05

# Worst residual: 1.57 km
# MJD 59564.000000 (2021 Dec 16  0:00)
DART = NORAD 49497 = 2021-110A
1 49497U 21110A   21349.99919926 -00N6T3Z5 -01XYRNEJ +012FXVF0H 15200
2 49497                          -0004D1QJ -000DIFLK +00067AMN     05

# Worst residual: 1.61 km
# MJD 59565.000000 (2021 Dec 17  0:00)
DART = NORAD 49497 = 2021-110A
1 49497U 21110A   21350.99919926 -00O8H00G -0217X57F +013WWTY7H 15205
2 49497                          -0004CS82 -000DLV8G +000623DT     00

# Worst residual: 1.66 km
# MJD 59566.000000 (2021 Dec 18  0:00)
DART = NORAD 49497 = 2021-110A
1 49497U 21110A   21351.99919926 -00PA1I7U -024HX55T +015CLVA2H 15207
2 49497                          -0004C9F7 -000DPHN9 +0005WNZZ     01

# Worst residual: 1.69 km
# MJD 59567.000000 (2021 Dec 19  0:00)
DART = NORAD 49497 = 2021-110A
1 49497U 21110A   21352.99919926 -00QBGB4R -027ST5WI +016QZ2JAH 15203
2 49497                          -0004BGM0 -000DT9X5 +0005R0TI     00

# Worst residual: 1.71 km
# MJD 59568.000000 (2021 Dec 20  0:00)
DART = NORAD 49497 = 2021-110A
1 49497U 21110A   21353.99919926 -00RCMXM1 -02B4MI0I +0183YM0AH 15206
2 49497                          -0004AD73 -000DX73Y +0005L68B     00

